{"type": "FeatureCollection", "features": [ {"type": "Feature", "properties": {"norad_id": 65304, "name": "DRAGON CRS-33", "group": "stations", "lat": -44.12775953073493, "lon": -5.693246082504555, "alt_km": 420.12860926887424, "timestamp": "2025-12-16T10:53:44.226463+00:00", "meta": {"OBJECT_NAME": "DRAGON CRS-33", "OBJECT_ID": "2025-186A", "EPOCH": "2025-12-15T21:28:14.919168", "MEAN_MOTION": 15.49611341, "ECCENTRICITY": 0.0003169, "INCLINATION": 51.6305, "RA_OF_ASC_NODE": 126.8563, "ARG_OF_PERICENTER": 254.4589, "MEAN_ANOMALY": 105.605, "EPHEMERIS_TYPE": 0, "CLASSIFICATION_TYPE": "U", "NORAD_CAT_ID": 65304, "ELEMENT_SET_NO": 999, "REV_AT_EPOCH": 11, "BSTAR": 0.00012896231, "MEAN_MOTION_DOT": 6.813e-05, "MEAN_MOTION_DDOT": 0}, "tle": {"line1": "1 65304U 25186A   25349.89461712  .00006813  00000+0  12896-3 0  9997", "line2": "2 65304  51.6305 126.8563 0003169 254.4589 105.6050 15.49611341   111"}}, "geometry": {"type": "Point", "coordinates": [-5.693246082504555, -44.12775953073493]}}, {"type": "Feature", "properties": {"norad_id": 65586, "name": "PROGRESS-MS 32", "group": "stations", "lat": -44.127760081010514, "lon": -5.693244760920339, "alt_km": 420.1286092794717, "timestamp": "2025-12-16T10:53:44.226480+00:00", "meta": {"OBJECT_NAME": "PROGRESS-MS 32", "OBJECT_ID": "2025-204A", "EPOCH": "2025-12-15T21:28:14.919168", "MEAN_MOTION": 15.49611341, "ECCENTRICITY": 0.0003169, "INCLINATION": 51.6305, "RA_OF_ASC_NODE": 126.8563, "ARG_OF_PERICENTER": 254.4589, "MEAN_ANOMALY": 105.605, "EPHEMERIS_TYPE": 0, "CLASSIFICATION_TYPE": "U", "NORAD_CAT_ID": 65586, "ELEMENT_SET_NO": 999, "REV_AT_EPOCH": 27, "BSTAR": 0.00012896231, "MEAN_MOTION_DOT": 6.813e-05, "MEAN_MOTION_DDOT": 0}, "tle": {"line1": "1 65586U 25204A   25349.89461712  .00006813  00000+0  12896-3 0  9990", "line2": "2 65586  51.6305 126.8563 0003169 254.4589 105.6050 15.49611341   270"}}, "geometry": {"type": "Point", "coordinates": [-5.693244760920339, -44.127760081010514]}}, {"type": "Feature", "properties": {"norad_id": 65616, "name": "CYGNUS NG-23", "group": "stations", "lat": -44.12776066365532, "lon": -5.693243361595666, "alt_km": 420.1286092906921, "timestamp": "2025-12-16T10:53:44.226498+00:00", "meta": {"OBJECT_NAME": "CYGNUS NG-23", "OBJECT_ID": "2025-208A", "EPOCH": "2025-12-15T21:28:14.919168", "MEAN_MOTION": 15.49611341, "ECCENTRICITY": 0.0003169, "INCLINATION": 51.6305, "RA_OF_ASC_NODE": 126.8563, "ARG_OF_PERICENTER": 254.4589, "MEAN_ANOMALY": 105.605, "EPHEMERIS_TYPE": 0, "CLASSIFICATION_TYPE": "U", "NORAD_CAT_ID": 65616, "ELEMENT_SET_NO": 999, "REV_AT_EPOCH": 22, "BSTAR": 0.00012896231, "MEAN_MOTION_DOT": 6.813e-05, "MEAN_MOTION_DDOT": 0}, "tle": {"line1": "1 65616U 25208A   25349.89461712  .00006813  00000+0  12896-3 0  9998", "line2": "2 65616  51.6305 126.8563 0003169 254.4589 105.6050 15.49611341   229"}}, "geometry": {"type": "Point", "coordinates": [-5.693243361595666, -44.12776066365532]}}, {"type": "Feature", "properties": {"norad_id": 65729, "name": "DRAGONFLY", "group": "stations", "lat": 8.80989570877791, "lon": -70.33179890418332, "alt_km": 352.5466630333367, "timestamp": "2025-12-16T10:53:44.226518+00:00", "meta": {"OBJECT_NAME": "DRAGONFLY", "OBJECT_ID": "1998-067XH", "EPOCH": "2025-12-15T15:53:06.024192", "MEAN_MOTION": 15.72920321, "ECCENTRICITY": 0.00070154, "INCLINATION": 51.6241, "RA_OF_ASC_NODE": 120.7881, "ARG_OF_PERICENTER": 296.9718, "MEAN_ANOMALY": 63.0564, "EPHEMERIS_TYPE": 0, "CLASSIFICATION_TYPE": "U", "NORAD_CAT_ID": 65729, "ELEMENT_SET_NO": 999, "REV_AT_EPOCH": 1362, "BSTAR": 0.0009891931, "MEAN_MOTION_DOT": 0.00139257, "MEAN_MOTION_DDOT": 0}, "tle": {"line1": "1 65729U 98067XH  25349.66187528  .00139257  00000+0  98919-3 0  9990", "line2": "2 65729  51.6241 120.7881 0007015 296.9718  63.0564 15.72920321 13620"}}, "geometry": {"type": "Point", "coordinates": [-70.33179890418332, 8.80989570877791]}}, {"type": "Feature", "properties": {"norad_id": 65731, "name": "1998-067XK", "group": "stations", "lat": 48.77540653883278, "lon": -126.35784605398784, "alt_km": 365.42243850933573, "timestamp": "2025-12-16T10:53:44.226543+00:00", "meta": {"OBJECT_NAME": "1998-067XK", "OBJECT_ID": "1998-067XK", "EPOCH": "2025-12-15T17:36:02.993472", "MEAN_MOTION": 15.66333624, "ECCENTRICITY": 0.00048129, "INCLINATION": 51.6281, "RA_OF_ASC_NODE": 122.0366, "ARG_OF_PERICENTER": 264.6574, "MEAN_ANOMALY": 95.3872, "EPHEMERIS_TYPE": 0, "CLASSIFICATION_TYPE": "U", "NORAD_CAT_ID": 65731, "ELEMENT_SET_NO": 999, "REV_AT_EPOCH": 1361, "BSTAR": 0.00074239237, "MEAN_MOTION_DOT": 0.00078692, "MEAN_MOTION_DDOT": 0}, "tle": {"line1": "1 65731U 98067XK  25349.73336798  .00078692  00000+0  74239-3 0  9990", "line2": "2 65731  51.6281 122.0366 0004812 264.6574  95.3872 15.66333624 13610"}}, "geometry": {"type": "Point", "coordinates": [-126.35784605398784, 48.77540653883278]}}, {"type": "Feature", "properties": {"norad_id": 65732, "name": "RSP-03", "group": "stations", "lat": 43.29336030151248, "lon": -110.70838173150338, "alt_km": 357.6974760652729, "timestamp": "2025-12-16T10:53:44.226567+00:00", "meta": {"OBJECT_NAME": "RSP-03", "OBJECT_ID": "1998-067XL", "EPOCH": "2025-12-15T09:56:23.959680", "MEAN_MOTION": 15.69333488, "ECCENTRICITY": 0.00056309, "INCLINATION": 51.6255, "RA_OF_ASC_NODE": 122.8946, "ARG_OF_PERICENTER": 270.0098, "MEAN_ANOMALY": 90.0254, "EPHEMERIS_TYPE": 0, "CLASSIFICATION_TYPE": "U", "NORAD_CAT_ID": 65732, "ELEMENT_SET_NO": 999, "REV_AT_EPOCH": 1358, "BSTAR": 0.00085708712, "MEAN_MOTION_DOT": 0.00103156, "MEAN_MOTION_DDOT": 0}, "tle": {"line1": "1 65732U 98067XL  25349.41416620  .00103156  00000+0  85709-3 0  9997", "line2": "2 65732  51.6255 122.8946 0005630 270.0098  90.0254 15.69333488 13588"}}, "geometry": {"type": "Point", "coordinates": [-110.70838173150338, 43.29336030151248]}}, {"type": "Feature", "properties": {"norad_id": 65733, "name": "GHS-01", "group": "stations", "lat": 40.3099458900695, "lon": -106.16512993266439, "alt_km": 340.23946801016154, "timestamp": "2025-12-16T10:53:44.226589+00:00", "meta": {"OBJECT_NAME": "GHS-01", "OBJECT_ID": "1998-067XM", "EPOCH": "2025-12-15T17:38:00.008448", "MEAN_MOTION": 15.76152522, "ECCENTRICITY": 0.00075996, "INCLINATION": 51.6274, "RA_OF_ASC_NODE": 119.7831, "ARG_OF_PERICENTER": 301.7085, "MEAN_ANOMALY": 58.3173, "EPHEMERIS_TYPE": 0, "CLASSIFICATION_TYPE": "U", "NORAD_CAT_ID": 65733, "ELEMENT_SET_NO": 999, "REV_AT_EPOCH": 1365, "BSTAR": 0.0011101643, "MEAN_MOTION_DOT": 0.00180872, "MEAN_MOTION_DDOT": 0}, "tle": {"line1": "1 65733U 98067XM  25349.73472232  .00180872  00000+0  11102-2 0  9999", "line2": "2 65733  51.6274 119.7831 0007599 301.7085  58.3173 15.76152522 13653"}}, "geometry": {"type": "Point", "coordinates": [-106.16512993266439, 40.3099458900695]}}, {"type": "Feature", "properties": {"norad_id": 65941, "name": "YOTSUBA-KULOVER", "group": "stations", "lat": 28.99709792714282, "lon": -84.75067558167031, "alt_km": 384.92771120647376, "timestamp": "2025-12-16T10:53:44.226611+00:00", "meta": {"OBJECT_NAME": "YOTSUBA-KULOVER", "OBJECT_ID": "1998-067XN", "EPOCH": "2025-12-15T18:54:55.792800", "MEAN_MOTION": 15.59882351, "ECCENTRICITY": 0.00014577, "INCLINATION": 51.6281, "RA_OF_ASC_NODE": 124.6502, "ARG_OF_PERICENTER": 281.9175, "MEAN_ANOMALY": 78.1654, "EPHEMERIS_TYPE": 0, "CLASSIFICATION_TYPE": "U", "NORAD_CAT_ID": 65941, "ELEMENT_SET_NO": 999, "REV_AT_EPOCH": 1033, "BSTAR": 0.00065176428, "MEAN_MOTION_DOT": 0.00053323, "MEAN_MOTION_DDOT": 0}, "tle": {"line1": "1 65941U 98067XN  25349.78814575  .00053323  00000+0  65176-3 0  9996", "line2": "2 65941  51.6281 124.6502 0001457 281.9175  78.1654 15.59882351 10335"}}, "geometry": {"type": "Point", "coordinates": [-84.75067558167031, 28.99709792714282]}}, {"type": "Feature", "properties": {"norad_id": 65942, "name": "BOTAN", "group": "stations", "lat": 16.941685936839942, "lon": -73.45235618523978, "alt_km": 376.012594872368, "timestamp": "2025-12-16T10:53:44.226655+00:00", "meta": {"OBJECT_NAME": "BOTAN", "OBJECT_ID": "1998-067XP", "EPOCH": "2025-12-15T15:48:54.878400", "MEAN_MOTION": 15.63514528, "ECCENTRICITY": 0.00029297, "INCLINATION": 51.6278, "RA_OF_ASC_NODE": 124.5376, "ARG_OF_PERICENTER": 262.4016, "MEAN_ANOMALY": 97.6646, "EPHEMERIS_TYPE": 0, "CLASSIFICATION_TYPE": "U", "NORAD_CAT_ID": 65942, "ELEMENT_SET_NO": 999, "REV_AT_EPOCH": 1032, "BSTAR": 0.00087407179, "MEAN_MOTION_DOT": 0.00082884, "MEAN_MOTION_DDOT": 0}, "tle": {"line1": "1 65942U 98067XP  25349.65896850  .00082884  00000+0  87407-3 0  9994", "line2": "2 65942  51.6278 124.5376 0002929 262.4016  97.6646 15.63514528 10322"}}, "geometry": {"type": "Point", "coordinates": [-73.45235618523978, 16.941685936839942]}}, {"type": "Feature", "properties": {"norad_id": 65943, "name": "E-KAGAKU-1", "group": "stations", "lat": 29.36763087388789, "lon": -85.17434218613147, "alt_km": 384.018646356727, "timestamp": "2025-12-16T10:53:44.226683+00:00", "meta": {"OBJECT_NAME": "E-KAGAKU-1", "OBJECT_ID": "1998-067XQ", "EPOCH": "2025-12-15T15:50:32.577792", "MEAN_MOTION": 15.59851021, "ECCENTRICITY": 0.00016366, "INCLINATION": 51.6292, "RA_OF_ASC_NODE": 125.299, "ARG_OF_PERICENTER": 221.4661, "MEAN_ANOMALY": 138.6208, "EPHEMERIS_TYPE": 0, "CLASSIFICATION_TYPE": "U", "NORAD_CAT_ID": 65943, "ELEMENT_SET_NO": 999, "REV_AT_EPOCH": 1031, "BSTAR": 0.0006409113, "MEAN_MOTION_DOT": 0.00052357, "MEAN_MOTION_DDOT": 0}, "tle": {"line1": "1 65943U 98067XQ  25349.66009928  .00052357  00000+0  64091-3 0  9994", "line2": "2 65943  51.6292 125.2990 0001636 221.4661 138.6208 15.59851021 10310"}}, "geometry": {"type": "Point", "coordinates": [-85.17434218613147, 29.36763087388789]}}]}